OBJECT_NAME,OBJECT_ID,EPOCH,MEAN_MOTION,ECCENTRICITY,INCLINATION,RA_OF_ASC_NODE,ARG_OF_PERICENTER,MEAN_ANOMALY,EPHEMERIS_TYPE,CLASSIFICATION_TYPE,NORAD_CAT_ID,ELEMENT_SET_NO,REV_AT_EPOCH,BSTAR,MEAN_MOTION_DOT,MEAN_MOTION_DDOT
STARLINK-5564,2023-046AU,2026-07-21T11:19:29.625888,15.27564196,.00015337,43.0050,111.1792,275.1906,84.8771,0,U,56134,999,18265,-.43983903E-4,-.1472E-4,0
STARLINK-5489,2023-046AW,2026-07-21T11:28:43.263264,15.27578034,.00016004,43.0045,111.2260,266.4967,93.5702,0,U,56136,999,18266,.18935474E-4,.259E-5,0
STARLINK-5090,2023-046AX,2026-07-20T23:08:25.091520,15.27580876,.00013964,43.0037,114.2421,269.5089,90.5602,0,U,56137,999,18258,.23104948E-4,.374E-5,0
STARLINK-4774,2023-046AY,2026-07-21T04:20:30.057216,15.27577215,.00009975,43.0025,113.2882,252.2523,107.8220,0,U,56138,999,18261,.8761179E-5,-.21E-6,0
STARLINK-5375,2023-046BA,2026-07-21T10:57:29.416608,15.27505478,.00021416,43.0039,111.9139,244.2181,115.8449,0,U,56140,999,18265,.48610612E-3,.13108E-3,0
STARLINK-5377,2023-046BB,2026-07-19T03:17:35.922048,15.27577146,.00011876,43.0026,124.6111,268.1814,91.8902,0,U,56141,999,18230,.21549344E-4,.331E-5,0
STARLINK-5376,2023-046BC,2026-07-21T03:24:59.566176,15.27577676,.00013642,43.0040,113.0068,276.8325,83.2372,0,U,56142,999,18261,.19566329E-4,.276E-5,0
STARLINK-5016,2023-046BD,2026-07-21T15:42:22.951584,15.18466621,.00033994,42.9975,122.7611,183.3190,176.7637,0,U,56143,999,18254,.15811822E-2,.33113E-3,0
STARLINK-5374,2023-046BE,2026-07-21T03:45:20.449152,15.27587743,.00017099,43.0043,113.1045,269.9266,90.1389,0,U,56144,999,18261,.43811005E-4,.944E-5,0
STARLINK-5111,2023-046BG,2026-07-21T02:27:50.583456,15.27575850,.00012576,43.0027,113.5624,263.0068,97.0640,0,U,56146,999,18260,-.7032235E-5,-.456E-5,0
STARLINK-5089,2023-046BJ,2026-07-20T22:58:16.016448,15.27581887,.00009585,43.0029,77.6656,259.0470,101.0274,0,U,56148,999,18300,.36014861E-4,.729E-5,0
STARLINK-30107,2023-056B,2026-07-21T04:14:35.681568,15.27579106,.00009112,43.0012,157.2882,273.3993,86.6755,0,U,56287,999,18071,.17788253E-4,.228E-5,0
STARLINK-30106,2023-056C,2026-07-20T23:15:50.143968,15.27575877,.00008368,43.0022,176.2142,263.8768,96.1989,0,U,56288,999,18042,.25552402E-4,.441E-5,0
STARLINK-30095,2023-056D,2026-07-21T06:04:37.150464,15.27578792,.00009837,43.0021,148.7393,283.2460,76.8282,0,U,56289,999,18076,.28894861E-4,.533E-5,0
STARLINK-30103,2023-056E,2026-07-21T15:02:56.967072,15.27577606,.00009957,43.0030,172.5414,260.9867,99.0872,0,U,56290,999,18052,.56703377E-4,.1299E-4,0
STARLINK-30113,2023-056F,2026-07-21T07:01:03.766944,15.27576265,.00008535,42.9998,174.3273,266.4261,93.6493,0,U,56291,999,18047,.21242521E-4,.323E-5,0
STARLINK-30098,2023-056G,2026-07-21T15:08:29.592384,15.27580287,.00009886,43.0041,172.5585,276.1513,83.9226,0,U,56292,999,18052,.28984834E-4,.536E-5,0
STARLINK-30049,2023-056J,2026-07-21T07:38:03.381216,15.27577425,.0001363,43.0021,174.4486,272.9303,87.1393,0,U,56294,999,18047,.824444E-6,-.239E-5,0
STARLINK-30083,2023-056K,2026-07-20T23:29:41.821728,15.27579933,.00011296,43.0023,150.9674,266.7927,93.2796,0,U,56295,999,18070,.30237233E-4,.57E-5,0
STARLINK-30089,2023-056L,2026-07-21T02:57:13.846752,15.27577683,.00010703,43.0031,135.5750,281.9421,78.1311,0,U,56296,999,18090,.32082841E-4,.621E-5,0
STARLINK-30086,2023-056M,2026-07-21T07:30:38.962080,15.27577834,.00012456,43.0028,174.4106,295.5960,64.4763,0,U,56297,999,18047,.9497207E-5,-.1E-7,0
STARLINK-30109,2023-056N,2026-07-21T14:44:25.628928,15.27577024,.0000845,43.0005,172.3712,271.2926,88.7829,0,U,56298,999,18058,.9380478E-5,-.4E-7,0
STARLINK-30108,2023-056P,2026-07-20T23:34:20.996544,15.27577029,.00013145,43.0021,164.9424,266.3071,93.7631,0,U,56299,999,18061,.24509863E-4,.412E-5,0
STARLINK-30104,2023-056Q,2026-07-21T07:26:58.322400,15.27575761,.00012499,43.0024,174.4709,277.7758,82.2952,0,U,56300,999,18053,.2913356E-5,-.182E-5,0
STARLINK-30101,2023-056R,2026-07-21T14:58:05.545056,15.29342148,.00013655,43.0015,171.6449,221.6999,138.3750,0,U,56301,999,18059,.32449528E-3,.917E-4,0
STARLINK-30111,2023-056S,2026-07-20T07:08:20.698656,15.27576785,.00010946,43.0008,179.6873,273.3506,86.7221,0,U,56302,999,18038,.3004562E-4,.565E-5,0
STARLINK-30099,2023-056U,2026-07-21T05:12:06.404256,15.27566771,.00013036,43.0021,174.5358,291.4687,68.6026,0,U,56304,999,18052,-.13299572E-4,-.628E-5,0
STARLINK-30094,2023-056V,2026-07-20T15:13:55.421472,15.27575352,.00009624,42.9999,177.8924,273.0205,87.0537,0,U,56305,999,18043,.2319458E-5,-.198E-5,0
STARLINK-30112,2023-056W,2026-07-20T14:53:34.596384,15.27575645,.00008967,43.0012,177.8105,279.7365,80.3386,0,U,56306,999,18043,.12460111E-4,.81E-6,0
STARLINK-6038,2023-058A,2026-07-21T05:57:04.352256,15.05654931,.00020961,97.2843,200.5478,93.6048,266.5419,0,U,56317,999,17794,-.7341683E-5,-.162E-5,0
STARLINK-5954,2023-058B,2026-07-21T10:04:18.178176,15.05660020,.00017022,97.2834,200.7729,98.7849,261.3571,0,U,56318,999,17797,.43221604E-4,.568E-5,0
STARLINK-6039,2023-058C,2026-07-21T10:30:16.613856,15.05643684,.00021545,97.2836,199.6837,91.8861,268.2613,0,U,56319,999,17790,-.69326575E-4,-.1056E-4,0
STARLINK-5988,2023-058D,2026-07-21T10:14:18.621888,15.05656636,.00020994,97.2839,199.5461,87.0781,273.0687,0,U,56320,999,17790,.3846056E-5,-.1E-7,0
STARLINK-5876,2023-058E,2026-07-21T14:00:01.999872,15.05702644,.00020306,97.2837,200.9052,101.9327,4.9271,0,U,56321,999,568,-.3384184E-2,-.48621E-3,0
STARLINK-6033,2023-058F,2026-07-21T12:37:51.903552,15.05655051,.00022123,97.2832,199.7126,101.9120,258.2356,0,U,56322,999,17791,.8693282E-5,.69E-6,0
STARLINK-6035,2023-058G,2026-07-21T10:54:11.663424,15.05654894,.00020226,97.2841,199.6586,94.1796,265.9663,0,U,56323,999,17789,.40607175E-4,.53E-5,0
STARLINK-6034,2023-058H,2026-07-20T22:50:25.043136,15.05659513,.00025406,97.2823,200.3347,88.5997,271.5521,0,U,56324,999,17790,.47563293E-4,.63E-5,0
STARLINK-5981,2023-058J,2026-07-21T09:50:24.591840,15.05660488,.00016581,97.2827,199.5650,85.5747,274.5670,0,U,56325,999,17824,.72201551E-4,.986E-5,0
STARLINK-5980,2023-058K,2026-07-21T10:18:17.970624,15.05645714,.00022122,97.2825,199.5390,83.0785,277.0695,0,U,56326,999,17789,-.36586681E-4,-.584E-5,0
STARLINK-5997,2023-058L,2026-07-21T09:46:23.935872,15.05656530,.00018576,97.2833,199.5696,89.1869,270.9572,0,U,56327,999,17824,.24293283E-4,.294E-5,0
STARLINK-5992,2023-058M,2026-07-21T10:52:08.738688,15.05653993,.00018538,97.2845,200.7280,99.4651,260.6787,0,U,56328,999,17832,-.15180372E-4,-.275E-5,0
STARLINK-5984,2023-058N,2026-07-21T10:32:11.908608,15.05665702,.00022346,97.2837,200.7494,86.8707,273.2776,0,U,56329,999,17832,.97546341E-4,.1352E-4,0
STARLINK-5991,2023-058Q,2026-07-21T10:10:19.360416,15.05656719,.00018846,97.2824,199.5467,89.8501,270.2943,0,U,56331,999,17824,-.11342871E-4,-.22E-5,0
STARLINK-5093,2023-058R,2026-07-21T00:04:14.352096,15.05650972,.00018725,97.2837,199.2008,89.7536,270.3906,0,U,56332,999,17818,.2580293E-5,-.19E-6,0
STARLINK-5553,2023-058S,2026-07-21T11:12:04.834368,15.05656521,.00021456,97.2838,200.7093,91.3971,268.7502,0,U,56333,999,17832,.1000595E-4,.88E-6,0
STARLINK-5548,2023-058T,2026-07-21T09:56:19.333824,15.05661532,.00016438,97.2827,200.7787,79.8104,280.3309,0,U,56334,999,17832,.14080219E-3,.1976E-4,0
STARLINK-5559,2023-058U,2026-07-21T10:16:17.330304,15.05649308,.00019906,97.2847,200.7649,94.6559,265.4896,0,U,56335,999,17832,-.41985298E-4,-.662E-5,0
STARLINK-5562,2023-058V,2026-07-21T11:06:08.988192,15.05655954,.00015246,97.2836,199.6485,99.0954,261.0447,0,U,56336,999,17825,.3200916E-5,-.1E-6,0
STARLINK-5561,2023-058W,2026-07-20T22:44:29.295456,15.05652322,.00014784,97.2832,199.1247,101.5424,258.5970,0,U,56337,999,17817,.4903231E-4,.651E-5,0
STARLINK-5554,2023-058X,2026-07-21T10:50:12.249888,15.05654837,.00020961,97.2840,199.6627,91.6357,268.5111,0,U,56338,999,17825,.17209842E-4,.192E-5,0
STARLINK-5552,2023-058Y,2026-07-21T05:47:09.551328,15.05654335,.00022814,97.2843,199.4915,88.8553,271.2936,0,U,56339,999,17822,.769902E-6,-.45E-6,0
STARLINK-5540,2023-058Z,2026-07-21T11:03:31.449024,15.06045617,.00016481,97.2837,200.7171,111.6225,248.5178,0,U,56340,999,17832,.33543762E-2,.49196E-3,0
STARLINK-5543,2023-058AA,2026-07-21T14:29:32.092224,15.05661334,.00020702,97.2837,199.7621,84.7457,275.4007,0,U,56341,999,17826,.88296618E-4,.1218E-4,0
STARLINK-5955,2023-058AB,2026-07-21T05:41:07.880064,15.05653244,.00021158,97.2841,200.5659,87.7703,272.3767,0,U,56342,999,17829,-.16732763E-4,-.298E-5,0
STARLINK-5976,2023-058AC,2026-07-21T14:19:29.698464,15.05655958,.00021978,97.2841,200.8396,90.2202,269.9277,0,U,56343,999,17834,.328592E-6,-.52E-6,0
STARLINK-5974,2023-058AD,2026-07-21T10:12:16.924032,15.05658278,.00018183,97.2823,200.7649,91.1323,269.0113,0,U,56344,999,17832,.9733109E-5,.84E-6,0
STARLINK-5979,2023-058AE,2026-07-21T10:06:19.974528,15.05661161,.00017396,97.2834,199.5540,87.5127,272.6300,0,U,56345,999,17824,.21526254E-4,.254E-5,0
STARLINK-5837,2023-058AF,2026-07-21T10:38:14.670240,15.05655313,.00020552,97.2842,199.6770,94.0573,266.0890,0,U,56346,999,17825,-.5750399E-5,-.139E-5,0
STARLINK-5829,2023-058AG,2026-07-21T10:36:12.819456,15.05639030,.00017887,97.2836,200.7469,94.7195,265.4237,0,U,56347,999,17832,.21124951E-4,.248E-5,0
STARLINK-5888,2023-058AH,2026-07-21T10:26:16.204128,15.05653959,.00019507,97.2842,199.5359,92.6405,267.5046,0,U,56348,999,17824,-.16468588E-4,-.294E-5,0
STARLINK-5887,2023-058AJ,2026-07-21T10:46:14.361312,15.05646416,.00020334,97.2848,199.6700,95.6459,264.5000,0,U,56349,999,17825,.1014426E-3,.1408E-4,0
STARLINK-5886,2023-058AK,2026-07-21T05:37:08.596128,15.05654218,.00020405,97.2841,200.5707,91.2087,268.9374,0,U,56350,999,17829,-.18317618E-4,-.321E-5,0
STARLINK-5891,2023-058AL,2026-07-21T12:35:49.150752,15.05656111,.00022818,97.2838,200.7852,90.8195,269.3295,0,U,56351,999,17833,.11226555E-4,.106E-5,0
STARLINK-5885,2023-058AM,2026-07-21T09:58:21.576864,15.05661011,.00018169,97.2823,199.5594,86.5434,273.6002,0,U,56352,999,17824,.38972132E-4,.506E-5,0
